{
  "type": "FeatureCollection",
  "features": [
    {
      "type": "Feature",
      "properties": {
        "norad_id": 34859,
        "name": "COSMOS 2251 DEB",
        "group": "cosmos-2251-debris",
        "lat": 27.078211711165732,
        "lon": 172.97758728894155,
        "alt_km": 531.8609872103007,
        "timestamp": "2025-12-02T06:27:53.406730+00:00",
        "meta_object_name": "COSMOS 2251 DEB",
        "meta_object_id": "1993-036ACD",
        "meta_epoch": "2025-12-01T12:53:29.087808",
        "meta_mean_motion": 15.11887072,
        "meta_eccentricity": 0.00048248,
        "meta_inclination": 74.0342,
        "meta_ra_of_asc_node": 2.9095,
        "meta_arg_of_pericenter": 311.9669,
        "meta_mean_anomaly": 175.911,
        "meta_ephemeris_type": 0,
        "meta_classification_type": "U",
        "meta_norad_cat_id": 34859,
        "meta_element_set_no": 999,
        "meta_rev_at_epoch": 88189,
        "meta_bstar": 0.0043232973,
        "meta_mean_motion_dot": 0.00074779,
        "meta_mean_motion_ddot": 0,
        "tle_line1": "1 34859U 93036ACD 25335.53714222  .00074779  00000+0  43233-2 0  9994",
        "tle_line2": "2 34859  74.0342   2.9095 0004824 311.9669 175.9110 15.11887072881897"
      },
      "geometry": {
        "type": "Point",
        "coordinates": [
          172.97758728894155,
          27.078211711165732
        ]
      }
    },
    {
      "type": "Feature",
      "properties": {
        "norad_id": 34861,
        "name": "COSMOS 2251 DEB",
        "group": "cosmos-2251-debris",
        "lat": 51.75227203483191,
        "lon": -129.09700919408832,
        "alt_km": 553.8270080489874,
        "timestamp": "2025-12-02T06:27:53.406740+00:00",
        "meta_object_name": "COSMOS 2251 DEB",
        "meta_object_id": "1993-036ACF",
        "meta_epoch": "2025-12-01T17:40:45.676992",
        "meta_mean_motion": 15.01458475,
        "meta_eccentricity": 0.0006024,
        "meta_inclination": 74.0188,
        "meta_ra_of_asc_node": 73.308,
        "meta_arg_of_pericenter": 88.9479,
        "meta_mean_anomaly": 37.8295,
        "meta_ephemeris_type": 0,
        "meta_classification_type": "U",
        "meta_norad_cat_id": 34861,
        "meta_element_set_no": 999,
        "meta_rev_at_epoch": 87927,
        "meta_bstar": 0.0025622,
        "meta_mean_motion_dot": 0.00033243,
        "meta_mean_motion_ddot": 0,
        "tle_line1": "1 34861U 93036ACF 25335.73663978  .00033243  00000+0  25622-2 0  9993",
        "tle_line2": "2 34861  74.0188  73.3080 0006024  88.9479  37.8295 15.01458475879277"
      },
      "geometry": {
        "type": "Point",
        "coordinates": [
          -129.09700919408832,
          51.75227203483191
        ]
      }
    },
    {
      "type": "Feature",
      "properties": {
        "norad_id": 34874,
        "name": "COSMOS 2251 DEB",
        "group": "cosmos-2251-debris",
        "lat": 32.435144809669765,
        "lon": 103.47127687958354,
        "alt_km": 767.0147832006232,
        "timestamp": "2025-12-02T06:27:53.406750+00:00",
        "meta_object_name": "COSMOS 2251 DEB",
        "meta_object_id": "1993-036ACM",
        "meta_epoch": "2025-12-01T02:42:32.920128",
        "meta_mean_motion": 14.36206746,
        "meta_eccentricity": 0.00516647,
        "meta_inclination": 74.0383,
        "meta_ra_of_asc_node": 95.1148,
        "meta_arg_of_pericenter": 124.0105,
        "meta_mean_anomaly": 53.5333,
        "meta_ephemeris_type": 0,
        "meta_classification_type": "U",
        "meta_norad_cat_id": 34874,
        "meta_element_set_no": 999,
        "meta_rev_at_epoch": 86877,
        "meta_bstar": 0.0011472987,
        "meta_mean_motion_dot": 3.375e-05,
        "meta_mean_motion_ddot": 0,
        "tle_line1": "1 34874U 93036ACM 25335.11288102  .00003375  00000+0  11473-2 0  9993",
        "tle_line2": "2 34874  74.0383  95.1148 0051664 124.0105  53.5333 14.36206746868773"
      },
      "geometry": {
        "type": "Point",
        "coordinates": [
          103.47127687958354,
          32.435144809669765
        ]
      }
    },
    {
      "type": "Feature",
      "properties": {
        "norad_id": 34875,
        "name": "COSMOS 2251 DEB",
        "group": "cosmos-2251-debris",
        "lat": -27.12387994697343,
        "lon": 169.40252558372094,
        "alt_km": 724.8971100671288,
        "timestamp": "2025-12-02T06:27:53.406759+00:00",
        "meta_object_name": "COSMOS 2251 DEB",
        "meta_object_id": "1993-036ACN",
        "meta_epoch": "2025-12-01T20:43:21.724032",
        "meta_mean_motion": 14.48866163,
        "meta_eccentricity": 0.0015932,
        "meta_inclination": 74.043,
        "meta_ra_of_asc_node": 178.5907,
        "meta_arg_of_pericenter": 303.0257,
        "meta_mean_anomaly": 72.2871,
        "meta_ephemeris_type": 0,
        "meta_classification_type": "U",
        "meta_norad_cat_id": 34875,
        "meta_element_set_no": 999,
        "meta_rev_at_epoch": 87598,
        "meta_bstar": 0.00041093,
        "meta_mean_motion_dot": 1.529e-05,
        "meta_mean_motion_ddot": 0,
        "tle_line1": "1 34875U 93036ACN 25335.86344588  .00001529  00000+0  41093-3 0  9998",
        "tle_line2": "2 34875  74.0430 178.5907 0015932 303.0257  72.2871 14.48866163875985"
      },
      "geometry": {
        "type": "Point",
        "coordinates": [
          169.40252558372094,
          -27.12387994697343
        ]
      }
    },
    {
      "type": "Feature",
      "properties": {
        "norad_id": 34878,
        "name": "COSMOS 2251 DEB",
        "group": "cosmos-2251-debris",
        "lat": 73.61684203183867,
        "lon": 141.95083276943782,
        "alt_km": 822.0681178391533,
        "timestamp": "2025-12-02T06:27:53.406769+00:00",
        "meta_object_name": "COSMOS 2251 DEB",
        "meta_object_id": "1993-036ACR",
        "meta_epoch": "2025-12-01T14:17:05.154720",
        "meta_mean_motion": 13.44171436,
        "meta_eccentricity": 0.04352412,
        "meta_inclination": 73.9642,
        "meta_ra_of_asc_node": 65.0008,
        "meta_arg_of_pericenter": 50.7211,
        "meta_mean_anomaly": 11.8748,
        "meta_ephemeris_type": 0,
        "meta_classification_type": "U",
        "meta_norad_cat_id": 34878,
        "meta_element_set_no": 999,
        "meta_rev_at_epoch": 81123,
        "meta_bstar": 0.00042153975,
        "meta_mean_motion_dot": 4.13e-06,
        "meta_mean_motion_ddot": 0,
        "tle_line1": "1 34878U 93036ACR 25335.59519855  .00000413  00000+0  42154-3 0  9992",
        "tle_line2": "2 34878  73.9642  65.0008 0435241  50.7211  11.8748 13.44171436811235"
      },
      "geometry": {
        "type": "Point",
        "coordinates": [
          141.95083276943782,
          73.61684203183867
        ]
      }
    },
    {
      "type": "Feature",
      "properties": {
        "norad_id": 34882,
        "name": "COSMOS 2251 DEB",
        "group": "cosmos-2251-debris",
        "lat": 21.102494711639018,
        "lon": 59.27067851841457,
        "alt_km": 733.80324563469,
        "timestamp": "2025-12-02T06:27:53.406779+00:00",
        "meta_object_name": "COSMOS 2251 DEB",
        "meta_object_id": "1993-036ACV",
        "meta_epoch": "2025-12-01T11:40:41.976480",
        "meta_mean_motion": 14.61558209,
        "meta_eccentricity": 0.00823347,
        "meta_inclination": 74.0469,
        "meta_ra_of_asc_node": 247.1045,
        "meta_arg_of_pericenter": 16.8902,
        "meta_mean_anomaly": 343.4975,
        "meta_ephemeris_type": 0,
        "meta_classification_type": "U",
        "meta_norad_cat_id": 34882,
        "meta_element_set_no": 999,
        "meta_rev_at_epoch": 88360,
        "meta_bstar": 0.00026774522,
        "meta_mean_motion_dot": 1.363e-05,
        "meta_mean_motion_ddot": 0,
        "tle_line1": "1 34882U 93036ACV 25335.48659695  .00001363  00000+0  26775-3 0  9998",
        "tle_line2": "2 34882  74.0469 247.1045 0082334  16.8902 343.4975 14.61558209883607"
      },
      "geometry": {
        "type": "Point",
        "coordinates": [
          59.27067851841457,
          21.102494711639018
        ]
      }
    },
    {
      "type": "Feature",
      "properties": {
        "norad_id": 34883,
        "name": "COSMOS 2251 DEB",
        "group": "cosmos-2251-debris",
        "lat": -52.65298257791123,
        "lon": -75.99011297606823,
        "alt_km": 673.0930786767012,
        "timestamp": "2025-12-02T06:27:53.406789+00:00",
        "meta_object_name": "COSMOS 2251 DEB",
        "meta_object_id": "1993-036ACW",
        "meta_epoch": "2025-11-30T07:02:10.083264",
        "meta_mean_motion": 14.50759385,
        "meta_eccentricity": 0.00947805,
        "meta_inclination": 74.1986,
        "meta_ra_of_asc_node": 85.9044,
        "meta_arg_of_pericenter": 273.1839,
        "meta_mean_anomaly": 85.8482,
        "meta_ephemeris_type": 0,
        "meta_classification_type": "U",
        "meta_norad_cat_id": 34883,
        "meta_element_set_no": 999,
        "meta_rev_at_epoch": 86259,
        "meta_bstar": 0.0053947255,
        "meta_mean_motion_dot": 0.00022542,
        "meta_mean_motion_ddot": 0,
        "tle_line1": "1 34883U 93036ACW 25334.29317226  .00022542  00000+0  53947-2 0  9990",
        "tle_line2": "2 34883  74.1986  85.9044 0094780 273.1839  85.8482 14.50759385862596"
      },
      "geometry": {
        "type": "Point",
        "coordinates": [
          -75.99011297606823,
          -52.65298257791123
        ]
      }
    }
  ]
}